STARLINK-30957          
1 58453U 23183S   26067.99738398  .00002651  00000+0  10847-3 0  9995
2 58453  43.0053  45.0847 0001531 274.8140  85.2537 15.26747443126637
FLOCK 4G-2              
1 62661U 25009BE  26068.66207492  .00013752  00000+0  51068-3 0  9995
2 62661  97.4044 151.2221 0003181 329.2677  30.8376 15.27675260121321
